[{"OBJECT_NAME":"STARLINK-32651","OBJECT_ID":"2024-239P","EPOCH":"2025-10-26T20:24:52.117344","MEAN_MOTION":15.30198343,"ECCENTRICITY":0.00011922,"INCLINATION":53.1588,"RA_OF_ASC_NODE":95.5084,"ARG_OF_PERICENTER":90.4074,"MEAN_ANOMALY":269.7063,"EPHEMERIS_TYPE":0,"CLASSIFICATION_TYPE":"U","NORAD_CAT_ID":62314,"ELEMENT_SET_NO":999,"REV_AT_EPOCH":4889,"BSTAR":0.0013434289,"MEAN_MOTION_DOT":0.0003964,"MEAN_MOTION_DDOT":0},{"OBJECT_NAME":"STARLINK-32627","OBJECT_ID":"2024-239Q","EPOCH":"2025-10-26T19:37:56.884800","MEAN_MOTION":15.30184116,"ECCENTRICITY":9.354e-5,"INCLINATION":53.1591,"RA_OF_ASC_NODE":95.9728,"ARG_OF_PERICENTER":90.0392,"MEAN_ANOMALY":270.0716,"EPHEMERIS_TYPE":0,"CLASSIFICATION_TYPE":"U","NORAD_CAT_ID":62315,"ELEMENT_SET_NO":999,"REV_AT_EPOCH":4888,"BSTAR":0.00095108733,"MEAN_MOTION_DOT":0.00027901,"MEAN_MOTION_DDOT":0},{"OBJECT_NAME":"STARLINK-32596","OBJECT_ID":"2024-239R","EPOCH":"2025-10-26T16:19:09.211008","MEAN_MOTION":15.30169922,"ECCENTRICITY":0.00014128,"INCLINATION":53.1571,"RA_OF_ASC_NODE":96.5782,"ARG_OF_PERICENTER":134.2505,"MEAN_ANOMALY":225.8612,"EPHEMERIS_TYPE":0,"CLASSIFICATION_TYPE":"U","NORAD_CAT_ID":62316,"ELEMENT_SET_NO":999,"REV_AT_EPOCH":4886,"BSTAR":0.0023054001,"MEAN_MOTION_DOT":0.00068488,"MEAN_MOTION_DDOT":0},{"OBJECT_NAME":"STARLINK-32519","OBJECT_ID":"2024-239S","EPOCH":"2025-10-26T19:53:40.957728","MEAN_MOTION":15.30206223,"ECCENTRICITY":0.0001097,"INCLINATION":53.1588,"RA_OF_ASC_NODE":82.5931,"ARG_OF_PERICENTER":65.1532,"MEAN_ANOMALY":294.9583,"EPHEMERIS_TYPE":0,"CLASSIFICATION_TYPE":"U","NORAD_CAT_ID":62317,"ELEMENT_SET_NO":999,"REV_AT_EPOCH":4907,"BSTAR":0.00100983,"MEAN_MOTION_DOT":0.00029674,"MEAN_MOTION_DDOT":0},{"OBJECT_NAME":"STARLINK-32527","OBJECT_ID":"2024-239U","EPOCH":"2025-10-26T18:16:35.170752","MEAN_MOTION":15.30203684,"ECCENTRICITY":9.305e-5,"INCLINATION":53.1585,"RA_OF_ASC_NODE":82.8813,"ARG_OF_PERICENTER":81.9794,"MEAN_ANOMALY":278.1312,"EPHEMERIS_TYPE":0,"CLASSIFICATION_TYPE":"U","NORAD_CAT_ID":62319,"ELEMENT_SET_NO":999,"REV_AT_EPOCH":4906,"BSTAR":0.00058855068,"MEAN_MOTION_DOT":0.00017114,"MEAN_MOTION_DDOT":0},{"OBJECT_NAME":"STARLINK-32481","OBJECT_ID":"2024-239V","EPOCH":"2025-10-27T00:00:02.000160","MEAN_MOTION":15.3019092,"ECCENTRICITY":0.00012131,"INCLINATION":53.1584,"RA_OF_ASC_NODE":81.8463,"ARG_OF_PERICENTER":74.7846,"MEAN_ANOMALY":124.9961,"EPHEMERIS_TYPE":0,"CLASSIFICATION_TYPE":"U","NORAD_CAT_ID":62320,"ELEMENT_SET_NO":999,"REV_AT_EPOCH":591,"BSTAR":-0.000136428,"MEAN_MOTION_DOT":-4.396e-5,"MEAN_MOTION_DDOT":0},{"OBJECT_NAME":"STARLINK-32645","OBJECT_ID":"2024-239W","EPOCH":"2025-10-27T00:00:02.000160","MEAN_MOTION":15.30190252,"ECCENTRICITY":8.776e-5,"INCLINATION":53.1585,"RA_OF_ASC_NODE":81.8934,"ARG_OF_PERICENTER":91.615,"MEAN_ANOMALY":84.8956,"EPHEMERIS_TYPE":0,"CLASSIFICATION_TYPE":"U","NORAD_CAT_ID":62321,"ELEMENT_SET_NO":999,"REV_AT_EPOCH":594,"BSTAR":-7.1408189e-5,"MEAN_MOTION_DOT":-2.472e-5,"MEAN_MOTION_DDOT":0},{"OBJECT_NAME":"STARLINK-32654","OBJECT_ID":"2024-239X","EPOCH":"2025-10-26T21:52:50.657088","MEAN_MOTION":15.30212061,"ECCENTRICITY":0.00012787,"INCLINATION":53.1595,"RA_OF_ASC_NODE":95.176,"ARG_OF_PERICENTER":85.1869,"MEAN_ANOMALY":274.9278,"EPHEMERIS_TYPE":0,"CLASSIFICATION_TYPE":"U","NORAD_CAT_ID":62322,"ELEMENT_SET_NO":999,"REV_AT_EPOCH":4890,"BSTAR":0.001351485,"MEAN_MOTION_DOT":0.00039898,"MEAN_MOTION_DDOT":0},{"OBJECT_NAME":"STARLINK-11444 [DTC]","OBJECT_ID":"2024-249A","EPOCH":"2025-10-26T06:03:57.612960","MEAN_MOTION":15.70863572,"ECCENTRICITY":0.0001375,"INCLINATION":42.9993,"RA_OF_ASC_NODE":258.3167,"ARG_OF_PERICENTER":265.024,"MEAN_ANOMALY":95.0471,"EPHEMERIS_TYPE":0,"CLASSIFICATION_TYPE":"U","NORAD_CAT_ID":62409,"ELEMENT_SET_NO":999,"REV_AT_EPOCH":4833,"BSTAR":0.0010166,"MEAN_MOTION_DOT":0.00132215,"MEAN_MOTION_DDOT":0},{"OBJECT_NAME":"STARLINK-11493 [DTC]","OBJECT_ID":"2024-249B","EPOCH":"2025-10-26T13:49:24.468960","MEAN_MOTION":15.70955765,"ECCENTRICITY":0.00027063,"INCLINATION":42.9988,"RA_OF_ASC_NODE":256.4423,"ARG_OF_PERICENTER":284.3854,"MEAN_ANOMALY":75.6713,"EPHEMERIS_TYPE":0,"CLASSIFICATION_TYPE":"U","NORAD_CAT_ID":62410,"ELEMENT_SET_NO":999,"REV_AT_EPOCH":4838,"BSTAR":0.0025117359,"MEAN_MOTION_DOT":0.00336892,"MEAN_MOTION_DDOT":0},{"OBJECT_NAME":"STARLINK-11453 [DTC]","OBJECT_ID":"2024-249C","EPOCH":"2025-10-26T22:12:53.620704","MEAN_MOTION":15.70915655,"ECCENTRICITY":0.00017396,"INCLINATION":43.0026,"RA_OF_ASC_NODE":253.8856,"ARG_OF_PERICENTER":255.9479,"MEAN_ANOMALY":104.1195,"EPHEMERIS_TYPE":0,"CLASSIFICATION_TYPE":"U","NORAD_CAT_ID":62411,"ELEMENT_SET_NO":999,"REV_AT_EPOCH":4844,"BSTAR":0.0021545433,"MEAN_MOTION_DOT":0.00286666,"MEAN_MOTION_DDOT":0},{"OBJECT_NAME":"STARLINK-11462 [DTC]","OBJECT_ID":"2024-249D","EPOCH":"2025-10-26T22:20:32.335584","MEAN_MOTION":15.71002557,"ECCENTRICITY":0.00018318,"INCLINATION":42.9994,"RA_OF_ASC_NODE":253.9283,"ARG_OF_PERICENTER":245.8528,"MEAN_ANOMALY":114.2148,"EPHEMERIS_TYPE":0,"CLASSIFICATION_TYPE":"U","NORAD_CAT_ID":62412,"ELEMENT_SET_NO":999,"REV_AT_EPOCH":4844,"BSTAR":0.0022118689,"MEAN_MOTION_DOT":0.00295708,"MEAN_MOTION_DDOT":0},{"OBJECT_NAME":"STARLINK-11441 [DTC]","OBJECT_ID":"2024-249E","EPOCH":"2025-10-26T21:49:57.457056","MEAN_MOTION":15.70919883,"ECCENTRICITY":0.00013581,"INCLINATION":42.9993,"RA_OF_ASC_NODE":253.7564,"ARG_OF_PERICENTER":250.3987,"MEAN_ANOMALY":109.6734,"EPHEMERIS_TYPE":0,"CLASSIFICATION_TYPE":"U","NORAD_CAT_ID":62413,"ELEMENT_SET_NO":999,"REV_AT_EPOCH":4844,"BSTAR":0.0022152141,"MEAN_MOTION_DOT":0.00295109,"MEAN_MOTION_DDOT":0},{"OBJECT_NAME":"STARLINK-11445 [DTC]","OBJECT_ID":"2024-249F","EPOCH":"2025-10-26T22:05:14.903232","MEAN_MOTION":15.70918772,"ECCENTRICITY":0.00010266,"INCLINATION":43.0018,"RA_OF_ASC_NODE":253.8425,"ARG_OF_PERICENTER":256.6539,"MEAN_ANOMALY":103.4214,"EPHEMERIS_TYPE":0,"CLASSIFICATION_TYPE":"U","NORAD_CAT_ID":62414,"ELEMENT_SET_NO":999,"REV_AT_EPOCH":4844,"BSTAR":0.0017914701,"MEAN_MOTION_DOT":0.00236875,"MEAN_MOTION_DDOT":0},{"OBJECT_NAME":"STARLINK-11355 [DTC]","OBJECT_ID":"2024-249G","EPOCH":"2025-10-26T21:51:16.036992","MEAN_MOTION":15.70998489,"ECCENTRICITY":0.00018297,"INCLINATION":42.9995,"RA_OF_ASC_NODE":253.7549,"ARG_OF_PERICENTER":245.5653,"MEAN_ANOMALY":114.5024,"EPHEMERIS_TYPE":0,"CLASSIFICATION_TYPE":"U","NORAD_CAT_ID":62415,"ELEMENT_SET_NO":999,"REV_AT_EPOCH":4844,"BSTAR":0.0021197739,"MEAN_MOTION_DOT":0.00282887,"MEAN_MOTION_DDOT":0},{"OBJECT_NAME":"STARLINK-11446 [DTC]","OBJECT_ID":"2024-249H","EPOCH":"2025-10-26T13:56:52.697472","MEAN_MOTION":15.708824,"ECCENTRICITY":8.102e-5,"INCLINATION":43.0003,"RA_OF_ASC_NODE":255.5856,"ARG_OF_PERICENTER":347.2363,"MEAN_ANOMALY":12.8484,"EPHEMERIS_TYPE":0,"CLASSIFICATION_TYPE":"U","NORAD_CAT_ID":62416,"ELEMENT_SET_NO":999,"REV_AT_EPOCH":4839,"BSTAR":0.0017853036,"MEAN_MOTION_DOT":0.00235665,"MEAN_MOTION_DDOT":0}]
