STARLINK-32651          
1 62314U 24239P   25299.85060321  .00039640  00000+0  13434-2 0  9996
2 62314  53.1588  95.5084 0001192  90.4074 269.7063 15.30198343 48895
STARLINK-32627          
1 62315U 24239Q   25299.81801950  .00027901  00000+0  95109-3 0  9991
2 62315  53.1591  95.9728 0000935  90.0392 270.0716 15.30184116 48884
STARLINK-32596          
1 62316U 24239R   25299.67996772  .00068488  00000+0  23054-2 0  9997
2 62316  53.1571  96.5782 0001412 134.2505 225.8612 15.30169922 48867
STARLINK-32519          
1 62317U 24239S   25299.82894627  .00029674  00000+0  10098-2 0  9999
2 62317  53.1588  82.5931 0001097  65.1532 294.9583 15.30206223 49072
STARLINK-32527          
1 62319U 24239U   25299.76151818  .00017114  00000+0  58855-3 0  9992
2 62319  53.1585  82.8813 0000930  81.9794 278.1312 15.30203684 49065
STARLINK-32481          
1 62320U 24239V   25300.00002315 -.00004396  00000+0 -13643-3 0  9997
2 62320  53.1584  81.8463 0001213  74.7846 124.9961 15.30190920  5911
STARLINK-32645          
1 62321U 24239W   25300.00002315 -.00002472  00000+0 -71408-4 0  9995
2 62321  53.1585  81.8934 0000877  91.6150  84.8956 15.30190252  5946
STARLINK-32654          
1 62322U 24239X   25299.91169742  .00039898  00000+0  13515-2 0  9994
2 62322  53.1595  95.1760 0001278  85.1869 274.9278 15.30212061 48909
STARLINK-11444 [DTC]    
1 62409U 24249A   25299.25275015  .00132215  00000+0  10166-2 0  9995
2 62409  42.9993 258.3167 0001375 265.0240  95.0471 15.70863572 48334
STARLINK-11493 [DTC]    
1 62410U 24249B   25299.57597765  .00336892  00000+0  25117-2 0  9990
2 62410  42.9988 256.4423 0002706 284.3854  75.6713 15.70955765 48382
STARLINK-11453 [DTC]    
1 62411U 24249C   25299.92562061  .00286666  00000+0  21545-2 0  9995
2 62411  43.0026 253.8856 0001739 255.9479 104.1195 15.70915655 48444
STARLINK-11462 [DTC]    
1 62412U 24249D   25299.93092981  .00295708  00000+0  22119-2 0  9991
2 62412  42.9994 253.9283 0001831 245.8528 114.2148 15.71002557 48447
STARLINK-11441 [DTC]    
1 62413U 24249E   25299.90969279  .00295109  00000+0  22152-2 0  9994
2 62413  42.9993 253.7564 0001358 250.3987 109.6734 15.70919883 48448
STARLINK-11445 [DTC]    
1 62414U 24249F   25299.92031138  .00236875  00000+0  17915-2 0  9997
2 62414  43.0018 253.8425 0001026 256.6539 103.4214 15.70918772 48441
STARLINK-11355 [DTC]    
1 62415U 24249G   25299.91060228  .00282887  00000+0  21198-2 0  9991
2 62415  42.9995 253.7549 0001829 245.5653 114.5024 15.70998489 48440
STARLINK-11446 [DTC]    
1 62416U 24249H   25299.58116548  .00235665  00000+0  17853-2 0  9997
2 62416  43.0003 255.5856 0000810 347.2363  12.8484 15.70882400 48390
